[{"OBJECT_NAME":"STARLINK-31730","OBJECT_ID":"2024-074X","EPOCH":"2026-03-09T02:59:21.351552","MEAN_MOTION":15.27556672,"ECCENTRICITY":0.00011459,"INCLINATION":43.003,"RA_OF_ASC_NODE":347.0799,"ARG_OF_PERICENTER":251.2892,"MEAN_ANOMALY":108.7835,"EPHEMERIS_TYPE":0,"CLASSIFICATION_TYPE":"U","NORAD_CAT_ID":59555,"ELEMENT_SET_NO":999,"REV_AT_EPOCH":10592,"BSTAR":-8.0472376e-5,"MEAN_MOTION_DOT":-2.474e-5,"MEAN_MOTION_DDOT":0},{"OBJECT_NAME":"KSLV-II R\/B","OBJECT_ID":"2023-072H","EPOCH":"2026-03-09T20:13:26.441760","MEAN_MOTION":15.33109439,"ECCENTRICITY":0.00241884,"INCLINATION":97.4991,"RA_OF_ASC_NODE":274.152,"ARG_OF_PERICENTER":318.2938,"MEAN_ANOMALY":41.646,"EPHEMERIS_TYPE":0,"CLASSIFICATION_TYPE":"U","NORAD_CAT_ID":56750,"ELEMENT_SET_NO":999,"REV_AT_EPOCH":15516,"BSTAR":0.00028309532,"MEAN_MOTION_DOT":9.057e-5,"MEAN_MOTION_DDOT":0}]
